[{"OBJECT_NAME":"IONOSFERA-M 2","OBJECT_ID":"2024-199B","EPOCH":"2026-03-09T22:15:30.586176","MEAN_MOTION":14.22737815,"ECCENTRICITY":3.184e-5,"INCLINATION":98.7324,"RA_OF_ASC_NODE":302.9812,"ARG_OF_PERICENTER":122.4874,"MEAN_ANOMALY":237.6335,"EPHEMERIS_TYPE":0,"CLASSIFICATION_TYPE":"U","NORAD_CAT_ID":61736,"ELEMENT_SET_NO":999,"REV_AT_EPOCH":11671,"BSTAR":4.5235484e-5,"MEAN_MOTION_DOT":5.7e-7,"MEAN_MOTION_DDOT":0},{"OBJECT_NAME":"METEOR 1-16","OBJECT_ID":"1974-011A","EPOCH":"2026-03-09T16:40:06.724992","MEAN_MOTION":14.14529272,"ECCENTRICITY":0.00378706,"INCLINATION":81.2266,"RA_OF_ASC_NODE":127.4388,"ARG_OF_PERICENTER":326.9157,"MEAN_ANOMALY":32.9647,"EPHEMERIS_TYPE":0,"CLASSIFICATION_TYPE":"U","NORAD_CAT_ID":7209,"ELEMENT_SET_NO":999,"REV_AT_EPOCH":68117,"BSTAR":0.00011000439,"MEAN_MOTION_DOT":2.25e-6,"MEAN_MOTION_DDOT":0}]
